QZS-1R                  
1 49336U 21096A   23206.58842715 -.00000270  00000+0  00000+0 0  9994
2 49336  35.2673  95.5460 0758883 272.0710 279.1056  1.00244234  6411
